[{"OBJECT_NAME":"STARLINK-32737","OBJECT_ID":"2024-251N","EPOCH":"2026-03-09T23:16:15.393504","MEAN_MOTION":15.30192317,"ECCENTRICITY":0.00013207,"INCLINATION":53.1596,"RA_OF_ASC_NODE":331.704,"ARG_OF_PERICENTER":131.4882,"MEAN_ANOMALY":228.6233,"EPHEMERIS_TYPE":0,"CLASSIFICATION_TYPE":"U","NORAD_CAT_ID":62444,"ELEMENT_SET_NO":999,"REV_AT_EPOCH":6802,"BSTAR":0.00063914212,"MEAN_MOTION_DOT":0.00018613,"MEAN_MOTION_DDOT":0},{"OBJECT_NAME":"COSMOS 1975","OBJECT_ID":"1988-093A","EPOCH":"2026-03-09T14:15:08.474112","MEAN_MOTION":15.28069249,"ECCENTRICITY":0.0012117,"INCLINATION":82.5181,"RA_OF_ASC_NODE":117.7814,"ARG_OF_PERICENTER":163.8427,"MEAN_ANOMALY":196.3201,"EPHEMERIS_TYPE":0,"CLASSIFICATION_TYPE":"U","NORAD_CAT_ID":19573,"ELEMENT_SET_NO":999,"REV_AT_EPOCH":1939,"BSTAR":0.0002787,"MEAN_MOTION_DOT":7.676e-5,"MEAN_MOTION_DDOT":0}]
